NORAD_CAT_ID,OBJECT_NAME,OBJECT_TYPE,EPOCH,MEAN_MOTION,ECCENTRICITY,INCLINATION,RA_OF_ASC_NODE,ARG_OF_PERICENTER,MEAN_ANOMALY,BSTAR,MEAN_MOTION_DOT,MEAN_MOTION_DDOT,TLE_LINE0,TLE_LINE1,TLE_LINE2,SEMIMAJOR_AXIS,PERIOD,APOGEE,PERIGEE,DECAYED
54096.0,STARLINK-5188,PAYLOAD,2023-11-26 16:54:52,15.08848075,0.0001361,53.2157,117.8145,82.0708,278.0438,0.00015802,2.228e-05,0.0,0 STARLINK-5188,1 54096U 22136AX  23330.70476958  .00002228  00000-0  15802-3 0  9998,2 54096  53.2157 117.8145 0001361  82.0708 278.0438 15.08848075 61085,6917.856,95.437,540.662,538.779,0.0
54096.0,STARLINK-5188,PAYLOAD,2023-11-27 08:48:44,15.08830889,0.0001387,53.2161,114.8395,106.19,253.9245,-0.00014797,-2.641e-05,0.0,0 STARLINK-5188,1 54096U 22136AX  23331.36717810 -.00002641  00000-0 -14797-3 0  9999,2 54096  53.2161 114.8395 0001387 106.1900 253.9245 15.08830889 61659,6917.908,95.438,540.733,538.814,0.0
54096.0,STARLINK-5188,PAYLOAD,2023-11-27 13:34:53,15.08833026,0.0001492,53.216,113.9482,96.9745,263.1416,-0.00010886,-2.02e-05,0.0,0 STARLINK-5188,1 54096U 22136AX  23331.56589817 -.00002020  00000-0 -10886-3 0  9991,2 54096  53.2160 113.9482 0001492  96.9745 263.1416 15.08833026 61216,6917.902,95.438,540.799,538.735,0.0
54096.0,STARLINK-5188,PAYLOAD,2023-11-27 16:45:39,15.08832051,0.0001398,53.2164,113.3537,89.193,270.9222,-0.00010749,-1.998e-05,0.0,0 STARLINK-5188,1 54096U 22136AX  23331.69837948 -.00001998  00000-0 -10749-3 0  9997,2 54096  53.2164 113.3537 0001398  89.1930 270.9222 15.08832051 61230,6917.905,95.438,540.737,538.803,0.0
54096.0,STARLINK-5188,PAYLOAD,2023-11-28 10:14:54,15.08836263,0.0001394,53.2174,110.0835,74.0113,286.1033,-2.386e-05,-6.68e-06,0.0,0 STARLINK-5188,1 54096U 22136AX  23332.42702066 -.00000668  00000-0 -23860-4 0  9993,2 54096  53.2174 110.0835 0001394  74.0113 286.1033 15.08836263 61810,6917.892,95.438,540.721,538.792,0.0
54096.0,STARLINK-5188,PAYLOAD,2023-11-28 13:25:40,15.08842797,0.0001385,53.2187,109.4894,76.3573,283.7573,5.7636e-05,6.3e-06,0.0,0 STARLINK-5188,1 54096U 22136AX  23332.55949942  .00000630  00000-0  57636-4 0  9998,2 54096  53.2187 109.4894 0001385  76.3573 283.7573 15.08842797 61367,6917.872,95.437,540.695,538.779,0.0
54096.0,STARLINK-5188,PAYLOAD,2023-11-28 18:11:49,15.08845039,0.0001296,53.2179,108.597,82.2067,277.9072,0.00030345,4.545e-05,0.0,0 STARLINK-5188,1 54096U 22136AX  23332.75821738  .00004545  00000-0  30345-3 0  9998,2 54096  53.2179 108.5970 0001296  82.2067 277.9072 15.08845039 61392,6917.865,95.437,540.627,538.833,0.0
54096.0,STARLINK-5188,PAYLOAD,2023-11-29 14:51:50,15.08844344,0.0001648,53.2176,104.7314,115.5238,244.5924,0.00020531,2.981e-05,0.0,0 STARLINK-5188,1 54096U 22136AX  23333.61933867  .00002981  00000-0  20531-3 0  9999,2 54096  53.2176 104.7314 0001648 115.5238 244.5924 15.08844344 61529,6917.867,95.437,540.872,538.592,0.0
54096.0,STARLINK-5188,PAYLOAD,2023-11-29 16:27:14,15.08845374,0.0001714,53.2181,104.4348,66.6555,293.4617,0.00029315,4.381e-05,0.0,0 STARLINK-5188,1 54096U 22136AX  23333.68558200  .00004381  00000-0  29315-3 0  9995,2 54096  53.2181 104.4348 0001714  66.6555 293.4617 15.08845374 62001,6917.864,95.437,540.915,538.543,0.0
54096.0,STARLINK-5188,PAYLOAD,2023-11-30 16:18:01,15.08843673,0.0001572,53.2179,99.9768,71.6686,288.4477,0.00015537,2.186e-05,0.0,0 STARLINK-5188,1 54096U 22136AX  23334.67918234  .00002186  00000-0  15537-3 0  9994,2 54096  53.2179  99.9768 0001572  71.6686 288.4477 15.08843673 62159,6917.869,95.437,540.822,538.647,0.0
54096.0,STARLINK-5188,PAYLOAD,2023-12-01 09:47:16,15.08843331,0.0001691,53.2175,96.7066,66.4157,293.7012,0.00013824,1.913e-05,0.0,0 STARLINK-5188,1 54096U 22136AX  23335.40782542  .00001913  00000-0  13824-3 0  9991,2 54096  53.2175  96.7066 0001691  66.4157 293.7012 15.08843331 62265,6917.87,95.437,540.905,538.565,0.0
54096.0,STARLINK-5188,PAYLOAD,2023-12-01 14:33:25,15.08850468,0.00016,53.2172,95.8145,70.7056,289.4109,0.00028015,4.175e-05,0.0,0 STARLINK-5188,1 54096U 22136AX  23335.60654096  .00004175  00000-0  28015-3 0  9996,2 54096  53.2172  95.8145 0001600  70.7056 289.4109 15.08850468 61825,6917.848,95.437,540.82,538.607,0.0
54096.0,STARLINK-5188,PAYLOAD,2023-12-02 14:24:11,15.08864333,0.0001464,53.2171,91.3533,76.8571,283.2584,0.00044373,6.786e-05,0.0,0 STARLINK-5188,1 54096U 22136AX  23336.60012961  .00006786  00000-0  44373-3 0  9991,2 54096  53.2171  91.3533 0001464  76.8571 283.2584 15.08864333 61974,6917.806,95.436,540.684,538.658,0.0
54096.0,STARLINK-5188,PAYLOAD,2023-12-03 11:04:13,15.08820778,0.0001408,53.217,87.4858,114.0931,246.0209,-0.00037758,-6.289e-05,0.0,0 STARLINK-5188,1 54096U 22136AX  23337.46126707 -.00006289  00000-0 -37758-3 0  9999,2 54096  53.2170  87.4858 0001408 114.0931 246.0209 15.08820778 62575,6917.939,95.439,540.778,538.83,0.0
54096.0,STARLINK-5188,PAYLOAD,2023-12-03 14:15:00,15.08807084,0.0001338,53.217,86.8907,105.4229,254.6911,-0.00057975,-9.494e-05,0.0,0 STARLINK-5188,1 54096U 22136AX  23337.59375440 -.00009494  00000-0 -57975-3 0  9997,2 54096  53.2170  86.8907 0001338 105.4229 254.6911 15.08807084 62120,6917.981,95.44,540.772,538.92,0.0
54096.0,STARLINK-5188,PAYLOAD,2023-12-03 17:25:46,15.0880718,0.0001279,53.2172,86.2973,100.3525,259.7611,-0.00050975,-8.384e-05,0.0,0 STARLINK-5188,1 54096U 22136AX  23337.72623763 -.00008384  00000-0 -50975-3 0  9996,2 54096  53.2172  86.2973 0001279 100.3525 259.7611 15.08807180 62610,6917.981,95.44,540.731,538.961,0.0
54096.0,STARLINK-5188,PAYLOAD,2023-12-04 10:55:01,15.08828035,0.0001679,53.2186,83.0262,116.4725,243.6439,0.00016968,2.413e-05,0.0,0 STARLINK-5188,1 54096U 22136AX  23338.45487856  .00002413  00000-0  16968-3 0  9997,2 54096  53.2186  83.0262 0001679 116.4725 243.6439 15.08828035 62729,6917.917,95.438,540.943,538.62,0.0
54096.0,STARLINK-5188,PAYLOAD,2023-12-04 12:30:24,15.08830008,0.0001735,53.2184,82.7282,117.358,242.7588,0.00020742,3.014e-05,0.0,0 STARLINK-5188,1 54096U 22136AX  23338.52111853  .00003014  00000-0  20742-3 0  9999,2 54096  53.2184  82.7282 0001735 117.3580 242.7588 15.08830008 62264,6917.911,95.438,540.976,538.576,0.0
54096.0,STARLINK-5188,PAYLOAD,2023-12-05 10:45:48,15.08846952,0.0001381,53.217,78.5651,116.6739,243.4394,0.00073395,0.00011414,0.0,0 STARLINK-5188,1 54096U 22136AX  23339.44847945  .00011414  00000-0  73395-3 0  9994,2 54096  53.2170  78.5651 0001381 116.6739 243.4394 15.08846952 62872,6917.859,95.437,540.679,538.769,0.0
54096.0,STARLINK-5188,PAYLOAD,2023-12-05 12:21:11,15.08856946,0.0001167,53.2164,78.2719,99.9482,260.1642,0.00082474,0.00012868,0.0,0 STARLINK-5188,1 54096U 22136AX  23339.51471860  .00012868  00000-0  82474-3 0  9993,2 54096  53.2164  78.2719 0001167  99.9482 260.1642 15.08856946 62413,6917.829,95.436,540.501,538.886,0.0
54096.0,STARLINK-5188,PAYLOAD,2023-12-06 10:36:34,15.08857596,0.0001655,53.2168,74.1011,125.79,234.3246,0.00015367,2.16e-05,0.0,0 STARLINK-5188,1 54096U 22136AX  23340.44206770  .00002160  00000-0  15367-3 0  9994,2 54096  53.2168  74.1011 0001655 125.7900 234.3246 15.08857596 63025,6917.827,95.436,540.837,538.547,0.0
54096.0,STARLINK-5188,PAYLOAD,2023-12-06 12:11:56,15.08903504,0.0001901,53.2173,73.8071,132.7608,227.3544,0.0014281,0.00022553,0.0,0 STARLINK-5188,1 54096U 22136AX  23340.50829520  .00022553  00000-0  14281-2 0  9996,2 54096  53.2173  73.8071 0001901 132.7608 227.3544 15.08903504 62562,6917.686,95.434,540.866,538.236,0.0
54096.0,STARLINK-5188,PAYLOAD,2023-12-07 05:41:12,15.0883774,0.0001803,53.2165,70.5373,109.2951,250.8236,-6.521e-05,-1.326e-05,0.0,0 STARLINK-5188,1 54096U 22136AX  23341.23695110 -.00001326  00000-0 -65210-4 0  9990,2 54096  53.2165  70.5373 0001803 109.2951 250.8236 15.08837740 63145,6917.887,95.438,541.0,538.505,0.0
54096.0,STARLINK-5188,PAYLOAD,2023-12-07 12:02:45,15.08839931,0.0001557,53.2176,69.3467,117.8815,242.2335,-1.9691e-05,-6.01e-06,0.0,0 STARLINK-5188,1 54096U 22136AX  23341.50191256 -.00000601  00000-0 -19691-4 0  9999,2 54096  53.2176  69.3467 0001557 117.8815 242.2335 15.08839931 62718,6917.881,95.438,540.823,538.668,0.0
54096.0,STARLINK-5188,PAYLOAD,2023-12-08 11:53:32,15.08843889,0.0001543,53.2177,64.887,107.2751,252.841,0.00030795,4.617e-05,0.0,0 STARLINK-5188,1 54096U 22136AX  23342.49551562  .00004617  00000-0  30795-3 0  9994,2 54096  53.2177  64.8870 0001543 107.2751 252.8410 15.08843889 63331,6917.869,95.437,540.801,538.666,0.0
54096.0,STARLINK-5188,PAYLOAD,2023-12-08 13:28:55,15.08847006,0.0001558,53.2182,64.5913,75.3852,284.7313,0.00045663,6.988e-05,0.0,0 STARLINK-5188,1 54096U 22136AX  23342.56175510  .00006988  00000-0  45663-3 0  9990,2 54096  53.2182  64.5913 0001558  75.3852 284.7313 15.08847006 62874,6917.859,95.437,540.802,538.646,0.0
54096.0,STARLINK-5188,PAYLOAD,2023-12-08 15:04:18,15.08850118,0.0001398,53.217,64.2926,81.6629,278.4521,0.00046097,7.058e-05,0.0,0 STARLINK-5188,1 54096U 22136AX  23342.62799518  .00007058  00000-0  46097-3 0  9998,2 54096  53.2170  64.2926 0001398  81.6629 278.4521 15.08850118 62886,6917.849,95.437,540.682,538.747,0.0
54096.0,STARLINK-5188,PAYLOAD,2023-12-09 11:44:19,15.08854818,0.0001328,53.2172,60.4268,112.5093,247.604,0.0004201,6.407e-05,0.0,0 STARLINK-5188,1 54096U 22136AX  23343.48911214  .00006407  00000-0  42010-3 0  9990,2 54096  53.2172  60.4268 0001328 112.5093 247.6040 15.08854818 63018,6917.835,95.437,540.619,538.781,0.0
54096.0,STARLINK-5188,PAYLOAD,2023-12-09 14:55:05,15.08850498,0.0001486,53.2182,59.8315,97.016,263.1002,0.00035068,5.299e-05,0.0,0 STARLINK-5188,1 54096U 22136AX  23343.62159358  .00005299  00000-0  35068-3 0  9992,2 54096  53.2182  59.8315 0001486  97.0160 263.1002 15.08850498 63506,6917.848,95.437,540.741,538.685,0.0
54096.0,STARLINK-5188,PAYLOAD,2023-12-11 09:50:30,15.088475,0.0001446,53.2169,51.8028,117.0888,243.0252,0.00025577,3.786e-05,0.0,0 STARLINK-5188,1 54096U 22136AX  23345.41007354  .00003786  00000-0  25577-3 0  9992,2 54096  53.2169  51.8028 0001446 117.0888 243.0252 15.08847500 63773,6917.857,95.437,540.723,538.722,0.0
